start=new Date('2022-01-06T00:00:00.000Z').valueOf();
sats=[{"NORAD_CAT_ID":"47835","MEAN_ANOMALY":"302.5252","TIME_SYSTEM":"UTC","EPHEMERIS_TYPE":"0","COUNTRY_CODE":"US","PERIOD":"95.593","CLASSIFICATION_TYPE":"U","TLE_LINE1":"1 47835U 21018BA  22005.88970887 -.00000086  00000-0  13139-4 0  9999","TLE_LINE2":"2 47835  53.0524 257.2372 0001928  57.5923 302.5252 15.06390343 46842","DECAY_DATE":null,"GP_ID":"193286146","MEAN_MOTION_DDOT":"0.0000000000000","SEMIMAJOR_AXIS":"6925.378","ECCENTRICITY":"0.00019280","FILE":"3265018","OBJECT_TYPE":"PAYLOAD","EPOCH":"2022-01-05T21:21:10.846368","ELEMENT_SET_NO":"999","MEAN_ELEMENT_THEORY":"SGP4","MEAN_MOTION_DOT":"-0.00000086","REV_AT_EPOCH":"4684","OBJECT_ID":"2021-018BA","OBJECT_NAME":"STARLINK-2425","LAUNCH_DATE":"2021-03-11","REF_FRAME":"TEME","CENTER_NAME":"EARTH","BSTAR":"0.00001313900000","SITE":"AFETR","APOAPSIS":"548.578","MEAN_MOTION":"15.06390343","ARG_OF_PERICENTER":"57.5923","INCLINATION":"53.0524","RA_OF_ASC_NODE":"257.2372","PERIAPSIS":"545.908","RCS_SIZE":"LARGE"},{"RCS_SIZE":"LARGE","PERIAPSIS":"545.705","RA_OF_ASC_NODE":"252.2424","INCLINATION":"53.0565","ARG_OF_PERICENTER":"53.4214","MEAN_MOTION":"15.06394198","APOAPSIS":"548.758","SITE":"AFETR","BSTAR":"-0.00001699400000","CENTER_NAME":"EARTH","REF_FRAME":"TEME","LAUNCH_DATE":"2021-03-11","OBJECT_NAME":"STARLINK-2426","OBJECT_ID":"2021-018BB","REV_AT_EPOCH":"4692","MEAN_MOTION_DOT":"-0.00000535","MEAN_ELEMENT_THEORY":"SGP4","ELEMENT_SET_NO":"999","EPOCH":"2022-01-05T21:13:52.945248","OBJECT_TYPE":"PAYLOAD","ECCENTRICITY":"0.00022040","FILE":"3265018","GP_ID":"193286365","SEMIMAJOR_AXIS":"6925.366","MEAN_MOTION_DDOT":"0.0000000000000","DECAY_DATE":null,"TLE_LINE2":"2 47836  53.0565 252.2424 0002204  53.4214 306.6978 15.06394198 46928","TLE_LINE1":"1 47836U 21018BB  22005.88464057 -.00000535  00000-0 -16994-4 0  9999","CLASSIFICATION_TYPE":"U","PERIOD":"95.593","COUNTRY_CODE":"US","EPHEMERIS_TYPE":"0","TIME_SYSTEM":"UTC","MEAN_ANOMALY":"306.6978","NORAD_CAT_ID":"47836"},{"NORAD_CAT_ID":"47837","MEAN_ANOMALY":"298.7882","TIME_SYSTEM":"UTC","CLASSIFICATION_TYPE":"U","EPHEMERIS_TYPE":"0","COUNTRY_CODE":"US","PERIOD":"95.593","TLE_LINE2":"2 47837  53.0545 232.1771 0002162  61.3324 298.7882 15.06386330 47219","DECAY_DATE":null,"SEMIMAJOR_AXIS":"6925.390","GP_ID":"193285148","MEAN_MOTION_DDOT":"0.0000000000000","TLE_LINE1":"1 47837U 21018BC  22005.90217500 -.00001045  00000-0 -51251-4 0  9994","ELEMENT_SET_NO":"999","ECCENTRICITY":"0.00021620","FILE":"3265018","EPOCH":"2022-01-05T21:39:07.920000","OBJECT_TYPE":"PAYLOAD","MEAN_MOTION_DOT":"-0.00001045","REV_AT_EPOCH":"4721","MEAN_ELEMENT_THEORY":"SGP4","LAUNCH_DATE":"2021-03-11","OBJECT_ID":"2021-018BC","OBJECT_NAME":"STARLINK-2427","BSTAR":"-0.00005125100000","REF_FRAME":"TEME","CENTER_NAME":"EARTH","INCLINATION":"53.0545","RA_OF_ASC_NODE":"232.1771","PERIAPSIS":"545.758","RCS_SIZE":"MEDIUM","SITE":"AFETR","APOAPSIS":"548.753","MEAN_MOTION":"15.06386330","ARG_OF_PERICENTER":"61.3324"},{"MEAN_MOTION_DOT":"0.00000970","REV_AT_EPOCH":"4692","MEAN_ELEMENT_THEORY":"SGP4","LAUNCH_DATE":"2021-03-11","OBJECT_ID":"2021-018BD","OBJECT_NAME":"STARLINK-2429","BSTAR":"0.00008400200000","REF_FRAME":"TEME","CENTER_NAME":"EARTH","INCLINATION":"53.0541","PERIAPSIS":"545.734","RA_OF_ASC_NODE":"252.1123","RCS_SIZE":"LARGE","SITE":"AFETR","APOAPSIS":"548.705","MEAN_MOTION":"15.06397926","ARG_OF_PERICENTER":"58.6949","NORAD_CAT_ID":"47838","MEAN_ANOMALY":"301.4250","TIME_SYSTEM":"UTC","CLASSIFICATION_TYPE":"U","EPHEMERIS_TYPE":"0","COUNTRY_CODE":"US","PERIOD":"95.592","TLE_LINE2":"2 47838  53.0541 252.1123 0002145  58.6949 301.4250 15.06397926 46923","DECAY_DATE":null,"GP_ID":"193285398","SEMIMAJOR_AXIS":"6925.355","MEAN_MOTION_DDOT":"0.0000000000000","TLE_LINE1":"1 47838U 21018BD  22005.91506830  .00000970  00000-0  84002-4 0  9997","ELEMENT_SET_NO":"999","ECCENTRICITY":"0.00021450","FILE":"3265018","OBJECT_TYPE":"PAYLOAD","EPOCH":"2022-01-05T21:57:41.901120"},{"BSTAR":"0.00007150600000","CENTER_NAME":"EARTH","REF_FRAME":"TEME","RCS_SIZE":"LARGE","INCLINATION":"53.0528","PERIAPSIS":"545.283","RA_OF_ASC_NODE":"222.2750","MEAN_MOTION":"15.06399095","ARG_OF_PERICENTER":"68.2585","APOAPSIS":"549.150","SITE":"AFETR","MEAN_MOTION_DOT":"0.00000783","REV_AT_EPOCH":"4735","MEAN_ELEMENT_THEORY":"SGP4","LAUNCH_DATE":"2021-03-11","OBJECT_ID":"2021-018BE","OBJECT_NAME":"STARLINK-2431","MEAN_MOTION_DDOT":"0.0000000000000","GP_ID":"193285647","SEMIMAJOR_AXIS":"6925.351","TLE_LINE2":"2 47839  53.0528 222.2750 0002792  68.2585 291.8701 15.06399095 47354","DECAY_DATE":null,"TLE_LINE1":"1 47839U 21018BE  22005.87729820  .00000783  00000-0  71506-4 0  9996","ELEMENT_SET_NO":"999","OBJECT_TYPE":"PAYLOAD","EPOCH":"2022-01-05T21:03:18.564480","ECCENTRICITY":"0.00027920","FILE":"3265018","TIME_SYSTEM":"UTC","NORAD_CAT_ID":"47839","MEAN_ANOMALY":"291.8701","CLASSIFICATION_TYPE":"U","COUNTRY_CODE":"US","PERIOD":"95.592","EPHEMERIS_TYPE":"0"},{"OBJECT_ID":"2021-018BF","OBJECT_NAME":"STARLINK-2432","LAUNCH_DATE":"2021-03-11","MEAN_ELEMENT_THEORY":"SGP4","MEAN_MOTION_DOT":"0.00000942","REV_AT_EPOCH":"4720","SITE":"AFETR","APOAPSIS":"548.809","MEAN_MOTION":"15.06394007","ARG_OF_PERICENTER":"60.1219","INCLINATION":"53.0547","RA_OF_ASC_NODE":"232.2272","PERIAPSIS":"545.655","RCS_SIZE":"LARGE","REF_FRAME":"TEME","CENTER_NAME":"EARTH","BSTAR":"0.00008215300000","EPHEMERIS_TYPE":"0","COUNTRY_CODE":"US","PERIOD":"95.593","CLASSIFICATION_TYPE":"U","NORAD_CAT_ID":"47840","MEAN_ANOMALY":"299.9996","TIME_SYSTEM":"UTC","ECCENTRICITY":"0.00022770","FILE":"3265018","EPOCH":"2022-01-05T21:17:53.828448","OBJECT_TYPE":"PAYLOAD","ELEMENT_SET_NO":"999","TLE_LINE1":"1 47840U 21018BF  22005.88742857  .00000942  00000-0  82153-4 0  9991","TLE_LINE2":"2 47840  53.0547 232.2272 0002277  60.1219 299.9996 15.06394007 47207","DECAY_DATE":null,"MEAN_MOTION_DDOT":"0.0000000000000","GP_ID":"193285866","SEMIMAJOR_AXIS":"6925.367"},{"GP_ID":"193284649","SEMIMAJOR_AXIS":"6925.368","MEAN_MOTION_DDOT":"0.0000000000000","TLE_LINE2":"2 47841  53.0553 232.2422 0002152  68.0698 292.0519 15.06393610 47206","DECAY_DATE":null,"TLE_LINE1":"1 47841U 21018BG  22005.88374706 -.00000854  00000-0 -38431-4 0  9990","ELEMENT_SET_NO":"999","OBJECT_TYPE":"PAYLOAD","EPOCH":"2022-01-05T21:12:35.745984","ECCENTRICITY":"0.00021520","FILE":"3265018","TIME_SYSTEM":"UTC","NORAD_CAT_ID":"47841","MEAN_ANOMALY":"292.0519","CLASSIFICATION_TYPE":"U","COUNTRY_CODE":"US","PERIOD":"95.593","EPHEMERIS_TYPE":"0","BSTAR":"-0.00003843100000","CENTER_NAME":"EARTH","REF_FRAME":"TEME","RCS_SIZE":"LARGE","INCLINATION":"53.0553","RA_OF_ASC_NODE":"232.2422","PERIAPSIS":"545.743","MEAN_MOTION":"15.06393610","ARG_OF_PERICENTER":"68.0698","SITE":"AFETR","APOAPSIS":"548.723","MEAN_MOTION_DOT":"-0.00000854","REV_AT_EPOCH":"4720","MEAN_ELEMENT_THEORY":"SGP4","LAUNCH_DATE":"2021-03-11","OBJECT_ID":"2021-018BG","OBJECT_NAME":"STARLINK-2433"},{"MEAN_ANOMALY":"301.4233","NORAD_CAT_ID":"47842","TIME_SYSTEM":"UTC","EPHEMERIS_TYPE":"0","PERIOD":"95.592","COUNTRY_CODE":"US","CLASSIFICATION_TYPE":"U","TLE_LINE1":"1 47842U 21018BH  22005.93625906  .00001048  00000-0  89278-4 0  9997","DECAY_DATE":null,"TLE_LINE2":"2 47842  53.0540 262.0220 0001841  58.6935 301.4233 15.06395499 46847","GP_ID":"193284899","SEMIMAJOR_AXIS":"6925.362","MEAN_MOTION_DDOT":"0.0000000000000","ECCENTRICITY":"0.00018410","FILE":"3265018","EPOCH":"2022-01-05T22:28:12.782784","OBJECT_TYPE":"PAYLOAD","ELEMENT_SET_NO":"999","MEAN_ELEMENT_THEORY":"SGP4","REV_AT_EPOCH":"4684","MEAN_MOTION_DOT":"0.00001048","OBJECT_NAME":"STARLINK-2434","OBJECT_ID":"2021-018BH","LAUNCH_DATE":"2021-03-11","REF_FRAME":"TEME","CENTER_NAME":"EARTH","BSTAR":"0.00008927800000","SITE":"AFETR","APOAPSIS":"548.502","ARG_OF_PERICENTER":"58.6935","MEAN_MOTION":"15.06395499","PERIAPSIS":"545.952","RA_OF_ASC_NODE":"262.0220","INCLINATION":"53.0540","RCS_SIZE":"LARGE"},{"ELEMENT_SET_NO":"999","OBJECT_TYPE":"PAYLOAD","EPOCH":"2022-01-05T21:49:04.276992","ECCENTRICITY":"0.00020100","FILE":"3265018","SEMIMAJOR_AXIS":"6925.339","GP_ID":"193286147","MEAN_MOTION_DDOT":"0.0000000000000","DECAY_DATE":null,"TLE_LINE2":"2 47843  53.0558 257.1461 0002010  53.3388 306.7786 15.06403042 46870","TLE_LINE1":"1 47843U 21018BJ  22005.90907728 -.00000745  00000-0 -31082-4 0  9995","CLASSIFICATION_TYPE":"U","PERIOD":"95.592","COUNTRY_CODE":"US","EPHEMERIS_TYPE":"0","TIME_SYSTEM":"UTC","MEAN_ANOMALY":"306.7786","NORAD_CAT_ID":"47843","RCS_SIZE":"LARGE","RA_OF_ASC_NODE":"257.1461","PERIAPSIS":"545.812","INCLINATION":"53.0558","ARG_OF_PERICENTER":"53.3388","MEAN_MOTION":"15.06403042","APOAPSIS":"548.596","SITE":"AFETR","BSTAR":"-0.00003108200000","CENTER_NAME":"EARTH","REF_FRAME":"TEME","LAUNCH_DATE":"2021-03-11","OBJECT_NAME":"STARLINK-2435","OBJECT_ID":"2021-018BJ","REV_AT_EPOCH":"4687","MEAN_MOTION_DOT":"-0.00000745","MEAN_ELEMENT_THEORY":"SGP4"},{"LAUNCH_DATE":"2021-03-11","OBJECT_NAME":"STARLINK-2446","OBJECT_ID":"2021-018BK","REV_AT_EPOCH":"4692","MEAN_MOTION_DOT":"0.00000617","MEAN_ELEMENT_THEORY":"SGP4","RCS_SIZE":"LARGE","RA_OF_ASC_NODE":"252.1420","PERIAPSIS":"545.735","INCLINATION":"53.0553","ARG_OF_PERICENTER":"59.5223","MEAN_MOTION":"15.06404446","APOAPSIS":"548.665","SITE":"AFETR","BSTAR":"0.00006030200000","CENTER_NAME":"EARTH","REF_FRAME":"TEME","CLASSIFICATION_TYPE":"U","PERIOD":"95.592","COUNTRY_CODE":"US","EPHEMERIS_TYPE":"0","TIME_SYSTEM":"UTC","MEAN_ANOMALY":"300.5975","NORAD_CAT_ID":"47844","ELEMENT_SET_NO":"999","OBJECT_TYPE":"PAYLOAD","EPOCH":"2022-01-05T21:47:05.497728","ECCENTRICITY":"0.00021160","FILE":"3265018","SEMIMAJOR_AXIS":"6925.335","GP_ID":"193286366","MEAN_MOTION_DDOT":"0.0000000000000","DECAY_DATE":null,"TLE_LINE2":"2 47844  53.0553 252.1420 0002116  59.5223 300.5975 15.06404446 46926","TLE_LINE1":"1 47844U 21018BK  22005.90770252  .00000617  00000-0  60302-4 0  9999"}];
